{
  "type": "FeatureCollection",
  "features": [
    {
      "type": "Feature",
      "properties": {
        "norad_id": 44333,
        "name": "AT&T T-16",
        "group": "intelsat",
        "lat": -0.008881040045613332,
        "lon": -133.1288193363777,
        "alt_km": 35784.615543719985,
        "timestamp": "2025-12-07T16:44:03.579039+00:00",
        "meta_object_name": "AT&T T-16",
        "meta_object_id": "2019-034A",
        "meta_epoch": "2025-12-05T21:46:40.325088",
        "meta_mean_motion": 1.00271318,
        "meta_eccentricity": 6.937e-05,
        "meta_inclination": 0.0289,
        "meta_ra_of_asc_node": 66.1436,
        "meta_arg_of_pericenter": 104.688,
        "meta_mean_anomaly": 129.9319,
        "meta_ephemeris_type": 0,
        "meta_classification_type": "U",
        "meta_norad_cat_id": 44333,
        "meta_element_set_no": 999,
        "meta_rev_at_epoch": 2369,
        "meta_bstar": 0,
        "meta_mean_motion_dot": -1.06e-06,
        "meta_mean_motion_ddot": 0,
        "tle_line1": "1 44333U 19034A   25339.90741117 -.00000106  00000+0  00000+0 0  9992",
        "tle_line2": "2 44333   0.0289  66.1436 0000693 104.6880 129.9319  1.00271318 23696"
      },
      "geometry": {
        "type": "Point",
        "coordinates": [
          -133.1288193363777,
          -0.008881040045613332
        ]
      }
    },
    {
      "type": "Feature",
      "properties": {
        "norad_id": 44476,
        "name": "INTELSAT 39 (IS-39)",
        "group": "intelsat",
        "lat": 0.0343453158199161,
        "lon": 29.664857429190857,
        "alt_km": 35787.52796620666,
        "timestamp": "2025-12-07T16:44:03.579050+00:00",
        "meta_object_name": "INTELSAT 39 (IS-39)",
        "meta_object_id": "2019-049B",
        "meta_epoch": "2025-12-06T20:20:38.721696",
        "meta_mean_motion": 1.00270607,
        "meta_eccentricity": 5.291e-05,
        "meta_inclination": 0.0178,
        "meta_ra_of_asc_node": 326.9296,
        "meta_arg_of_pericenter": 184.8231,
        "meta_mean_anomaly": 291.2367,
        "meta_ephemeris_type": 0,
        "meta_classification_type": "U",
        "meta_norad_cat_id": 44476,
        "meta_element_set_no": 999,
        "meta_rev_at_epoch": 2320,
        "meta_bstar": 0,
        "meta_mean_motion_dot": 3.9e-07,
        "meta_mean_motion_ddot": 0,
        "tle_line1": "1 44476U 19049B   25340.84767039  .00000039  00000+0  00000+0 0  9996",
        "tle_line2": "2 44476   0.0178 326.9296 0000529 184.8231 291.2367  1.00270607 23203"
      },
      "geometry": {
        "type": "Point",
        "coordinates": [
          29.664857429190857,
          0.0343453158199161
        ]
      }
    },
    {
      "type": "Feature",
      "properties": {
        "norad_id": 46114,
        "name": "GALAXY 30 (G-30)",
        "group": "intelsat",
        "lat": -0.028015746303511092,
        "lon": -157.3026653053066,
        "alt_km": 35779.88667519227,
        "timestamp": "2025-12-07T16:44:03.579062+00:00",
        "meta_object_name": "GALAXY 30 (G-30)",
        "meta_object_id": "2020-056C",
        "meta_epoch": "2025-12-06T16:29:46.461984",
        "meta_mean_motion": 1.0027044,
        "meta_eccentricity": 0.00024765,
        "meta_inclination": 0.0131,
        "meta_ra_of_asc_node": 322.415,
        "meta_arg_of_pericenter": 291.9013,
        "meta_mean_anomaly": 303.8481,
        "meta_ephemeris_type": 0,
        "meta_classification_type": "U",
        "meta_norad_cat_id": 46114,
        "meta_element_set_no": 999,
        "meta_rev_at_epoch": 1936,
        "meta_bstar": 0,
        "meta_mean_motion_dot": 4.3e-07,
        "meta_mean_motion_ddot": 0,
        "tle_line1": "1 46114U 20056C   25340.68734331  .00000043  00000+0  00000+0 0  9993",
        "tle_line2": "2 46114   0.0131 322.4150 0002476 291.9013 303.8481  1.00270440 19368"
      },
      "geometry": {
        "type": "Point",
        "coordinates": [
          -157.3026653053066,
          -0.028015746303511092
        ]
      }
    },
    {
      "type": "Feature",
      "properties": {
        "norad_id": 54026,
        "name": "GALAXY 33 (G-33)",
        "group": "intelsat",
        "lat": -0.0001446632253220977,
        "lon": -165.30137788191814,
        "alt_km": 35781.18785033932,
        "timestamp": "2025-12-07T16:44:03.579074+00:00",
        "meta_object_name": "GALAXY 33 (G-33)",
        "meta_object_id": "2022-128A",
        "meta_epoch": "2025-12-06T16:27:24.188832",
        "meta_mean_motion": 1.00270187,
        "meta_eccentricity": 0.0002237,
        "meta_inclination": 0.0188,
        "meta_ra_of_asc_node": 40.2361,
        "meta_arg_of_pericenter": 210.7508,
        "meta_mean_anomaly": 298.5841,
        "meta_ephemeris_type": 0,
        "meta_classification_type": "U",
        "meta_norad_cat_id": 54026,
        "meta_element_set_no": 999,
        "meta_rev_at_epoch": 1181,
        "meta_bstar": 0,
        "meta_mean_motion_dot": 8.5e-07,
        "meta_mean_motion_ddot": 0,
        "tle_line1": "1 54026U 22128A   25340.68569663  .00000085  00000+0  00000+0 0  9996",
        "tle_line2": "2 54026   0.0188  40.2361 0002237 210.7508 298.5841  1.00270187 11813"
      },
      "geometry": {
        "type": "Point",
        "coordinates": [
          -165.30137788191814,
          -0.0001446632253220977
        ]
      }
    },
    {
      "type": "Feature",
      "properties": {
        "norad_id": 54027,
        "name": "GALAXY 34 (G-34)",
        "group": "intelsat",
        "lat": -0.013010394449397384,
        "lon": -161.27804305315058,
        "alt_km": 35782.44654544694,
        "timestamp": "2025-12-07T16:44:03.579086+00:00",
        "meta_object_name": "GALAXY 34 (G-34)",
        "meta_object_id": "2022-128B",
        "meta_epoch": "2025-12-06T14:45:50.764896",
        "meta_mean_motion": 1.00271245,
        "meta_eccentricity": 0.00012982,
        "meta_inclination": 0.0035,
        "meta_ra_of_asc_node": 358.5566,
        "meta_arg_of_pericenter": 247.7183,
        "meta_mean_anomaly": 281.8466,
        "meta_ephemeris_type": 0,
        "meta_classification_type": "U",
        "meta_norad_cat_id": 54027,
        "meta_element_set_no": 999,
        "meta_rev_at_epoch": 1198,
        "meta_bstar": 0,
        "meta_mean_motion_dot": 6.5e-07,
        "meta_mean_motion_ddot": 0,
        "tle_line1": "1 54027U 22128B   25340.61517089  .00000065  00000+0  00000+0 0  9993",
        "tle_line2": "2 54027   0.0035 358.5566 0001298 247.7183 281.8466  1.00271245 11984"
      },
      "geometry": {
        "type": "Point",
        "coordinates": [
          -161.27804305315058,
          -0.013010394449397384
        ]
      }
    },
    {
      "type": "Feature",
      "properties": {
        "norad_id": 54243,
        "name": "GALAXY 31 (G-31)",
        "group": "intelsat",
        "lat": -0.0040035858190414,
        "lon": -153.29431129202007,
        "alt_km": 35782.127035165075,
        "timestamp": "2025-12-07T16:44:03.579098+00:00",
        "meta_object_name": "GALAXY 31 (G-31)",
        "meta_object_id": "2022-153A",
        "meta_epoch": "2025-12-06T16:30:53.853984",
        "meta_mean_motion": 1.00270911,
        "meta_eccentricity": 0.00019629,
        "meta_inclination": 0.0136,
        "meta_ra_of_asc_node": 63.5273,
        "meta_arg_of_pericenter": 203.3363,
        "meta_mean_anomaly": 295.5862,
        "meta_ephemeris_type": 0,
        "meta_classification_type": "U",
        "meta_norad_cat_id": 54243,
        "meta_element_set_no": 999,
        "meta_rev_at_epoch": 520,
        "meta_bstar": 0,
        "meta_mean_motion_dot": 2e-07,
        "meta_mean_motion_ddot": 0,
        "tle_line1": "1 54243U 22153A   25340.68812331  .00000020  00000+0  00000+0 0  9997",
        "tle_line2": "2 54243   0.0136  63.5273 0001962 203.3363 295.5862  1.00270911  5209"
      },
      "geometry": {
        "type": "Point",
        "coordinates": [
          -153.29431129202007,
          -0.0040035858190414
        ]
      }
    },
    {
      "type": "Feature",
      "properties": {
        "norad_id": 54244,
        "name": "GALAXY 32 (G-32)",
        "group": "intelsat",
        "lat": -0.027201085907967514,
        "lon": -123.30455266462181,
        "alt_km": 35782.31971650331,
        "timestamp": "2025-12-07T16:44:03.579110+00:00",
        "meta_object_name": "GALAXY 32 (G-32)",
        "meta_object_id": "2022-153B",
        "meta_epoch": "2025-12-06T14:56:42.226080",
        "meta_mean_motion": 1.00270597,
        "meta_eccentricity": 0.00026688,
        "meta_inclination": 0.0124,
        "meta_ra_of_asc_node": 15.9632,
        "meta_arg_of_pericenter": 289.3269,
        "meta_mean_anomaly": 263.5475,
        "meta_ephemeris_type": 0,
        "meta_classification_type": "U",
        "meta_norad_cat_id": 54244,
        "meta_element_set_no": 999,
        "meta_rev_at_epoch": 1121,
        "meta_bstar": 0,
        "meta_mean_motion_dot": -1.68e-06,
        "meta_mean_motion_ddot": 0,
        "tle_line1": "1 54244U 22153B   25340.62271095 -.00000168  00000+0  00000+0 0  9992",
        "tle_line2": "2 54244   0.0124  15.9632 0002668 289.3269 263.5475  1.00270597 11213"
      },
      "geometry": {
        "type": "Point",
        "coordinates": [
          -123.30455266462181,
          -0.027201085907967514
        ]
      }
    }
  ]
}